COSMOS 2413 (712)       
1 28509U 04053B   16043.13431334  .00000064  00000-0  00000+0 0  9991
2 28509  63.1325 194.5863 0005484 163.9942 105.9264  2.13101680 86617
COSMOS 2419 (714)       
1 28915U 05050A   16043.45432233  .00000005  00000-0  00000+0 0  9999
2 28915  65.2652  82.4108 0015728 344.2187 171.4524  2.13110584 78877
COSMOS 2425 (716)       
1 29670U 06062A   16043.06366186 -.00000032  00000-0  10000-3 0  9998
2 29670  65.6862 321.3946 0023382 344.4609 292.6381  2.13105066 71064
COSMOS 2426 (717)       
1 29671U 06062B   16043.07860046 -.00000032  00000-0  10000-3 0  9994
2 29671  65.7032 321.4727 0014986 167.1550 343.2163  2.13103156 71078
COSMOS 2424 (715)       
1 29672U 06062C   16043.35746087 -.00000034  00000-0  10000-3 0  9996
2 29672  65.6874 321.3940 0014459 166.1485  14.8176  2.13102158 71075
COSMOS 2433 (720)       
1 32275U 07052A   16043.32812694  .00000006  00000-0  10000-3 0  9992
2 32275  65.2806  82.1831 0004626 266.2108  45.6351  2.13105107 64581
COSMOS 2432 (719)       
1 32276U 07052B   16043.15875421  .00000007  00000-0  10000-3 0  9992
2 32276  65.2924  82.2526 0012668 328.8239 167.1790  2.13104334 64588
COSMOS 2434 (721)       
1 32393U 07065A   16043.15400002 -.00000033  00000-0  00000+0 0  9990
2 32393  65.3053 320.7743 0002761  80.6460 350.6549  2.13102846 63299
COSMOS 2436 (723)       
1 32395U 07065C   16043.12138432 -.00000032  00000-0  10000-3 0  9998
2 32395  65.3184 320.8160 0018800 351.0036 147.2713  2.13102912 63225
COSMOS 2443 (725)       
1 33379U 08046B   16043.47738605  .00000004  00000-0  10000-3 0  9995
2 33379  65.2094  81.6067 0018174 191.5181 141.4649  2.13101570 57458
COSMOS 2456 (730)       
1 36111U 09070A   16042.79533127  .00000068  00000-0  00000+0 0  9991
2 36111  64.1872 200.3944 0003491 349.1991 335.8871  2.13102945 47943
COSMOS 2457 (733)       
1 36112U 09070B   16042.62750059  .00000067  00000-0  00000+0 0  9998
2 36112  64.1690 200.3297 0007424 146.4511 180.7426  2.13101602 47941
COSMOS 2458 (734)       
1 36113U 09070C   16042.69366242  .00000067  00000-0  10000-3 0  9998
2 36113  64.1745 200.3324 0003110  60.3975   4.8425  2.13102060 47955
COSMOS 2459 (731)       
1 36400U 10007A   16043.16439128  .00000007  00000-0  10000-3 0  9990
2 36400  65.1882  81.3552 0028681 348.9831  63.7012  2.13102424 46312
COSMOS 2461 (735)       
1 36401U 10007B   16042.65620053  .00000011  00000-0  10000-3 0  9998
2 36401  65.1805  81.3551 0004133  64.0303 229.3333  2.13102388 46295
COSMOS 2460 (732)       
1 36402U 10007C   16043.25321197  .00000006  00000-0  10000-3 0  9997
2 36402  65.1712  81.3131 0002002 268.3508 165.1036  2.13102058 46310
COSMOS 2466 (738)       
1 37137U 10041A   16043.14222089 -.00000033  00000-0  10000-3 0  9990
2 37137  64.8890 320.9405 0018391 153.7345 132.1293  2.13102412 42385
COSMOS 2465 (737)       
1 37138U 10041B   16042.79153127 -.00000031  00000-0  00000+0 0  9990
2 37138  64.9058 321.0232 0032888 169.3723  30.0306  2.13102815 42370
COSMOS 2464 (736)       
1 37139U 10041C   16042.73258947 -.00000030  00000-0  00000+0 0  9990
2 37139  64.9083 321.0182 0023513  10.9186 277.8607  2.13102943 42379
COSMOS 2471 (701K)      
1 37372U 11009A   16043.41736875  .00000005  00000-0  00000+0 0  9992
2 37372  65.1689  81.2576 0009142 240.1859  91.3800  2.13103045 38587
COSMOS 2474 (742)       
1 37829U 11055A   16042.50456021  .00000067  00000-0  00000+0 0  9999
2 37829  64.5112 200.7641 0005596 248.2864  75.6965  2.13101951 33938
COSMOS 2476 (744)       
1 37867U 11064A   16042.50542087  .00000067  00000-0  00000+0 0  9999
2 37867  64.4911 200.8487 0014485 245.0792 125.3384  2.13102045 33299
COSMOS 2477 (745)       
1 37868U 11064B   16043.05881296  .00000070  00000-0  00000+0 0  9993
2 37868  64.4996 200.8690 0012514 246.1424   8.2085  2.13101912 33259
COSMOS 2475 (743)       
1 37869U 11064C   16042.73391203  .00000069  00000-0  00000+0 0  9990
2 37869  64.5068 200.8665 0018094 278.2845  42.8881  2.13102088 33258
COSMOS 2478 (746)       
1 37938U 11071A   16043.01864538  .00000008  00000-0  00000+0 0  9996
2 37938  65.1960  81.4887 0014650 242.3784 262.7003  2.13088582 32878
COSMOS 2485 (747)       
1 39155U 13019A   16043.08244785  .00000070  00000-0  00000+0 0  9995
2 39155  64.6602 200.7516 0014855 238.7156 259.5652  2.13102083 21776
COSMOS 2492 (754)       
1 39620U 14012A   16043.45294811  .00000004  00000-0  10000-3 0  9994
2 39620  65.0599  81.3122 0016488 326.7716 128.5499  2.13103650 14736
COSMOS 2500 (755)       
1 40001U 14032A   16043.12606547  .00000007  00000-0  00000+0 0  9996
2 40001  65.0001  81.3572 0007263 220.6248 207.8820  2.13103051 12946
COSMOS 2501 (702K)      
1 40315U 14075A   16043.53085766 -.00000038  00000-0  00000+0 0  9995
2 40315  64.6763 322.4871 0017241 240.8733 300.0409  2.13101495  9355
